[
    {
        "Altitude(m)": 557738.6087782412,
        "Argument of Periapsis(deg)": 0.033114955553567506,
        "Eccentricity": 0.0,
        "Inclination(deg)": 53.0,
        "Latitude(deg)": 43.66526668081166,
        "Longitude(deg)": 21.680045182480704,
        "Mean Anomaly(deg)": 59.548964337887924,
        "RAAN(deg)": 79.95071684264009,
        "Satellite Name": "Starlink Shell 1 352",
        "Satellite Number": 352,
        "Semi-Major Axis(m)": 6931778.249405717,
        "Time(s)": 950
    },
    {
        "Altitude(m)": 557816.3716676073,
        "Argument of Periapsis(deg)": 0.03346353403307874,
        "Eccentricity": 0.0,
        "Inclination(deg)": 53.0,
        "Latitude(deg)": 44.01353178085002,
        "Longitude(deg)": 22.360338217633185,
        "Mean Anomaly(deg)": 60.175795541444664,
        "RAAN(deg)": 79.95019807256261,
        "Satellite Name": "Starlink Shell 1 352",
        "Satellite Number": 352,
        "Semi-Major Axis(m)": 6931778.249405717,
        "Time(s)": 960
    },
    {
        "Altitude(m)": 557893.3415920455,
        "Argument of Periapsis(deg)": 0.03381211251258998,
        "Eccentricity": 0.0,
        "Inclination(deg)": 53.0,
        "Latitude(deg)": 44.35716632519039,
        "Longitude(deg)": 23.049061543061214,
        "Mean Anomaly(deg)": 60.80262674500137,
        "RAAN(deg)": 79.94967930248514,
        "Satellite Name": "Starlink Shell 1 352",
        "Satellite Number": 352,
        "Semi-Major Axis(m)": 6931778.249405717,
        "Time(s)": 970
    },
    {
        "Altitude(m)": 557969.4702068728,
        "Argument of Periapsis(deg)": 0.034160690992101214,
        "Eccentricity": 0.0,
        "Inclination(deg)": 53.0,
        "Latitude(deg)": 44.69606126440083,
        "Longitude(deg)": 23.746299856511545,
        "Mean Anomaly(deg)": 61.42945794855809,
        "RAAN(deg)": 79.94916053240767,
        "Satellite Name": "Starlink Shell 1 352",
        "Satellite Number": 352,
        "Semi-Major Axis(m)": 6931778.249405717,
        "Time(s)": 980
    },
    {
        "Altitude(m)": 558044.7098027385,
        "Argument of Periapsis(deg)": 0.034509269471612446,
        "Eccentricity": 0.0,
        "Inclination(deg)": 53.0,
        "Latitude(deg)": 45.03010586800966,
        "Longitude(deg)": 24.452133139269993,
        "Mean Anomaly(deg)": 62.0562891521148,
        "RAAN(deg)": 79.9486417623302,
        "Satellite Name": "Starlink Shell 1 352",
        "Satellite Number": 352,
        "Semi-Major Axis(m)": 6931778.249405717,
        "Time(s)": 990
    }
]